[{"OBJECT_NAME":"FENGYUN 1C DEB","OBJECT_ID":"1999-025FA","EPOCH":"2026-03-05T12:35:10.692384","MEAN_MOTION":14.51778308,"ECCENTRICITY":0.0249246,"INCLINATION":98.6821,"RA_OF_ASC_NODE":166.1064,"ARG_OF_PERICENTER":47.5316,"MEAN_ANOMALY":77.8708,"EPHEMERIS_TYPE":0,"CLASSIFICATION_TYPE":"U","NORAD_CAT_ID":29856,"ELEMENT_SET_NO":999,"REV_AT_EPOCH":97574,"BSTAR":0.0026771,"MEAN_MOTION_DOT":0.00016147,"MEAN_MOTION_DDOT":0},{"OBJECT_NAME":"FENGYUN 1C DEB","OBJECT_ID":"1999-025FB","EPOCH":"2026-03-05T11:15:54.523584","MEAN_MOTION":13.82186756,"ECCENTRICITY":0.0194128,"INCLINATION":98.4241,"RA_OF_ASC_NODE":68.0671,"ARG_OF_PERICENTER":68.7632,"MEAN_ANOMALY":293.4138,"EPHEMERIS_TYPE":0,"CLASSIFICATION_TYPE":"U","NORAD_CAT_ID":29857,"ELEMENT_SET_NO":999,"REV_AT_EPOCH":95918,"BSTAR":0.0020528,"MEAN_MOTION_DOT":2.519e-5,"MEAN_MOTION_DDOT":0},{"OBJECT_NAME":"FENGYUN 1C DEB","OBJECT_ID":"1999-025FC","EPOCH":"2026-03-05T18:23:45.517920","MEAN_MOTION":13.78047382,"ECCENTRICITY":0.0200609,"INCLINATION":99.2087,"RA_OF_ASC_NODE":168.9756,"ARG_OF_PERICENTER":203.8201,"MEAN_ANOMALY":310.1651,"EPHEMERIS_TYPE":0,"CLASSIFICATION_TYPE":"U","NORAD_CAT_ID":29858,"ELEMENT_SET_NO":999,"REV_AT_EPOCH":95697,"BSTAR":0.0020593,"MEAN_MOTION_DOT":2.359e-5,"MEAN_MOTION_DDOT":0},{"OBJECT_NAME":"FENGYUN 1C DEB","OBJECT_ID":"1999-025FD","EPOCH":"2026-03-05T11:07:26.525280","MEAN_MOTION":13.74451729,"ECCENTRICITY":0.029333,"INCLINATION":98.3398,"RA_OF_ASC_NODE":253.8292,"ARG_OF_PERICENTER":349.2277,"MEAN_ANOMALY":10.268,"EPHEMERIS_TYPE":0,"CLASSIFICATION_TYPE":"U","NORAD_CAT_ID":29859,"ELEMENT_SET_NO":999,"REV_AT_EPOCH":95116,"BSTAR":0.0016292,"MEAN_MOTION_DOT":2.068e-5,"MEAN_MOTION_DDOT":0},{"OBJECT_NAME":"FENGYUN 1C DEB","OBJECT_ID":"1999-025FE","EPOCH":"2026-03-05T16:25:50.928672","MEAN_MOTION":13.78005849,"ECCENTRICITY":0.0223631,"INCLINATION":98.6077,"RA_OF_ASC_NODE":95.9892,"ARG_OF_PERICENTER":120.5269,"MEAN_ANOMALY":3.1152,"EPHEMERIS_TYPE":0,"CLASSIFICATION_TYPE":"U","NORAD_CAT_ID":29860,"ELEMENT_SET_NO":999,"REV_AT_EPOCH":95281,"BSTAR":0.002516,"MEAN_MOTION_DOT":3.005e-5,"MEAN_MOTION_DDOT":0},{"OBJECT_NAME":"FENGYUN 1C DEB","OBJECT_ID":"1999-025FK","EPOCH":"2026-03-05T18:06:28.133856","MEAN_MOTION":14.84080227,"ECCENTRICITY":0.0111512,"INCLINATION":98.9218,"RA_OF_ASC_NODE":350.1432,"ARG_OF_PERICENTER":238.5511,"MEAN_ANOMALY":143.2191,"EPHEMERIS_TYPE":0,"CLASSIFICATION_TYPE":"U","NORAD_CAT_ID":29865,"ELEMENT_SET_NO":999,"REV_AT_EPOCH":1989,"BSTAR":0.0008998,"MEAN_MOTION_DOT":8.315e-5,"MEAN_MOTION_DDOT":0},{"OBJECT_NAME":"FENGYUN 1C DEB","OBJECT_ID":"1999-025FL","EPOCH":"2026-03-05T12:32:51.273024","MEAN_MOTION":14.64729732,"ECCENTRICITY":0.0192787,"INCLINATION":98.0466,"RA_OF_ASC_NODE":53.3886,"ARG_OF_PERICENTER":314.2446,"MEAN_ANOMALY":175.1733,"EPHEMERIS_TYPE":0,"CLASSIFICATION_TYPE":"U","NORAD_CAT_ID":29866,"ELEMENT_SET_NO":999,"REV_AT_EPOCH":1538,"BSTAR":0.00066956,"MEAN_MOTION_DOT":4.629e-5,"MEAN_MOTION_DDOT":0},{"OBJECT_NAME":"FENGYUN 1C DEB","OBJECT_ID":"1999-025FN","EPOCH":"2026-03-05T16:15:20.149920","MEAN_MOTION":14.79802436,"ECCENTRICITY":0.0194203,"INCLINATION":97.9356,"RA_OF_ASC_NODE":114.4678,"ARG_OF_PERICENTER":95.0601,"MEAN_ANOMALY":25.5693,"EPHEMERIS_TYPE":0,"CLASSIFICATION_TYPE":"U","NORAD_CAT_ID":29868,"ELEMENT_SET_NO":999,"REV_AT_EPOCH":1521,"BSTAR":0.00080882,"MEAN_MOTION_DOT":8.351e-5,"MEAN_MOTION_DDOT":0},{"OBJECT_NAME":"FENGYUN 1C DEB","OBJECT_ID":"1999-025FP","EPOCH":"2026-03-05T07:34:32.230848","MEAN_MOTION":14.37101575,"ECCENTRICITY":0.0087577,"INCLINATION":98.88,"RA_OF_ASC_NODE":2.1931,"ARG_OF_PERICENTER":126.4319,"MEAN_ANOMALY":30.278,"EPHEMERIS_TYPE":0,"CLASSIFICATION_TYPE":"U","NORAD_CAT_ID":29869,"ELEMENT_SET_NO":999,"REV_AT_EPOCH":1,"BSTAR":0.00038166,"MEAN_MOTION_DOT":1.137e-5,"MEAN_MOTION_DDOT":0},{"OBJECT_NAME":"FENGYUN 1C DEB","OBJECT_ID":"1999-025FQ","EPOCH":"2026-03-05T11:41:07.574208","MEAN_MOTION":14.29021376,"ECCENTRICITY":0.0119173,"INCLINATION":98.4733,"RA_OF_ASC_NODE":38.0242,"ARG_OF_PERICENTER":309.6388,"MEAN_ANOMALY":177.4309,"EPHEMERIS_TYPE":0,"CLASSIFICATION_TYPE":"U","NORAD_CAT_ID":29870,"ELEMENT_SET_NO":999,"REV_AT_EPOCH":99775,"BSTAR":0.00011627,"MEAN_MOTION_DOT":2.73e-6,"MEAN_MOTION_DDOT":0},{"OBJECT_NAME":"FENGYUN 1C DEB","OBJECT_ID":"1999-025FR","EPOCH":"2026-03-05T10:57:05.825952","MEAN_MOTION":14.43329295,"ECCENTRICITY":0.0055929,"INCLINATION":98.9833,"RA_OF_ASC_NODE":26.9636,"ARG_OF_PERICENTER":222.4301,"MEAN_ANOMALY":262.2528,"EPHEMERIS_TYPE":0,"CLASSIFICATION_TYPE":"U","NORAD_CAT_ID":29871,"ELEMENT_SET_NO":999,"REV_AT_EPOCH":99894,"BSTAR":0.0011577,"MEAN_MOTION_DOT":3.929e-5,"MEAN_MOTION_DDOT":0},{"OBJECT_NAME":"FENGYUN 1C DEB","OBJECT_ID":"1999-025FS","EPOCH":"2026-03-05T11:32:21.717024","MEAN_MOTION":14.39357256,"ECCENTRICITY":0.0236093,"INCLINATION":98.3415,"RA_OF_ASC_NODE":83.3059,"ARG_OF_PERICENTER":64.7868,"MEAN_ANOMALY":297.7595,"EPHEMERIS_TYPE":0,"CLASSIFICATION_TYPE":"U","NORAD_CAT_ID":29872,"ELEMENT_SET_NO":999,"REV_AT_EPOCH":99782,"BSTAR":0.00095749,"MEAN_MOTION_DOT":4.082e-5,"MEAN_MOTION_DDOT":0},{"OBJECT_NAME":"FENGYUN 1C DEB","OBJECT_ID":"1999-025FT","EPOCH":"2026-03-05T14:25:23.985120","MEAN_MOTION":13.98247869,"ECCENTRICITY":0.0092309,"INCLINATION":99.4366,"RA_OF_ASC_NODE":292.0524,"ARG_OF_PERICENTER":333.7022,"MEAN_ANOMALY":55.3665,"EPHEMERIS_TYPE":0,"CLASSIFICATION_TYPE":"U","NORAD_CAT_ID":29873,"ELEMENT_SET_NO":999,"REV_AT_EPOCH":97473,"BSTAR":0.00038505,"MEAN_MOTION_DOT":5.22e-6,"MEAN_MOTION_DDOT":0},{"OBJECT_NAME":"FENGYUN 1C DEB","OBJECT_ID":"1999-025FU","EPOCH":"2026-03-05T16:51:57.256128","MEAN_MOTION":14.30185134,"ECCENTRICITY":0.0100975,"INCLINATION":98.3778,"RA_OF_ASC_NODE":323.4628,"ARG_OF_PERICENTER":103.7859,"MEAN_ANOMALY":282.8205,"EPHEMERIS_TYPE":0,"CLASSIFICATION_TYPE":"U","NORAD_CAT_ID":29874,"ELEMENT_SET_NO":999,"REV_AT_EPOCH":98033,"BSTAR":0.0027574,"MEAN_MOTION_DOT":7.512e-5,"MEAN_MOTION_DDOT":0},{"OBJECT_NAME":"FENGYUN 1C DEB","OBJECT_ID":"1999-025FV","EPOCH":"2026-03-05T16:07:45.933024","MEAN_MOTION":14.24898431,"ECCENTRICITY":0.0082272,"INCLINATION":98.3901,"RA_OF_ASC_NODE":117.5335,"ARG_OF_PERICENTER":179.0444,"MEAN_ANOMALY":302.869,"EPHEMERIS_TYPE":0,"CLASSIFICATION_TYPE":"U","NORAD_CAT_ID":29875,"ELEMENT_SET_NO":999,"REV_AT_EPOCH":99503,"BSTAR":6.7649e-5,"MEAN_MOTION_DOT":1.22e-6,"MEAN_MOTION_DDOT":0},{"OBJECT_NAME":"FENGYUN 1C DEB","OBJECT_ID":"1999-025FW","EPOCH":"2026-03-05T16:14:43.733184","MEAN_MOTION":14.20360338,"ECCENTRICITY":0.0062253,"INCLINATION":98.3188,"RA_OF_ASC_NODE":115.4249,"ARG_OF_PERICENTER":134.0313,"MEAN_ANOMALY":348.1793,"EPHEMERIS_TYPE":0,"CLASSIFICATION_TYPE":"U","NORAD_CAT_ID":29876,"ELEMENT_SET_NO":999,"REV_AT_EPOCH":99094,"BSTAR":0.00017395,"MEAN_MOTION_DOT":3.4e-6,"MEAN_MOTION_DDOT":0}]
