FENGYUN 1C DEB          
1 29856U 99025FA  26064.52442931  .00016147  00000+0  26771-2 0  9996
2 29856  98.6821 166.1064 0249246  47.5316  77.8708 14.51778308975746
FENGYUN 1C DEB          
1 29857U 99025FB  26064.46938106  .00002519  00000+0  20528-2 0  9996
2 29857  98.4241  68.0671 0194128  68.7632 293.4138 13.82186756959185
FENGYUN 1C DEB          
1 29858U 99025FC  26064.76649905  .00002359  00000+0  20593-2 0  9990
2 29858  99.2087 168.9756 0200609 203.8201 310.1651 13.78047382956970
FENGYUN 1C DEB          
1 29859U 99025FD  26064.46350145  .00002068  00000+0  16292-2 0  9991
2 29859  98.3398 253.8292 0293330 349.2277  10.2680 13.74451729951162
FENGYUN 1C DEB          
1 29860U 99025FE  26064.68461723  .00003005  00000+0  25160-2 0  9998
2 29860  98.6077  95.9892 0223631 120.5269   3.1152 13.78005849952810
FENGYUN 1C DEB          
1 29865U 99025FK  26064.75449229  .00008315  00000+0  89980-3 0  9998
2 29865  98.9218 350.1432 0111512 238.5511 143.2191 14.84080227 19897
FENGYUN 1C DEB          
1 29866U 99025FL  26064.52281566  .00004629  00000+0  66956-3 0  9994
2 29866  98.0466  53.3886 0192787 314.2446 175.1733 14.64729732 15386
FENGYUN 1C DEB          
1 29868U 99025FN  26064.67731655  .00008351  00000+0  80882-3 0  9991
2 29868  97.9356 114.4678 0194203  95.0601  25.5693 14.79802436 15218
FENGYUN 1C DEB          
1 29869U 99025FP  26064.31565082  .00001137  00000+0  38166-3 0  9995
2 29869  98.8800   2.1931 0087577 126.4319  30.2780 14.37101575    10
FENGYUN 1C DEB          
1 29870U 99025FQ  26064.48689322  .00000273  00000+0  11627-3 0  9992
2 29870  98.4733  38.0242 0119173 309.6388 177.4309 14.29021376997753
FENGYUN 1C DEB          
1 29871U 99025FR  26064.45631743  .00003929  00000+0  11577-2 0  9998
2 29871  98.9833  26.9636 0055929 222.4301 262.2528 14.43329295998943
FENGYUN 1C DEB          
1 29872U 99025FS  26064.48080691  .00004082  00000+0  95749-3 0  9997
2 29872  98.3415  83.3059 0236093  64.7868 297.7595 14.39357256997824
FENGYUN 1C DEB          
1 29873U 99025FT  26064.60097205  .00000522  00000+0  38505-3 0  9993
2 29873  99.4366 292.0524 0092309 333.7022  55.3665 13.98247869974732
FENGYUN 1C DEB          
1 29874U 99025FU  26064.70274602  .00007512  00000+0  27574-2 0  9992
2 29874  98.3778 323.4628 0100975 103.7859 282.8205 14.30185134980337
FENGYUN 1C DEB          
1 29875U 99025FV  26064.67205941  .00000122  00000+0  67649-4 0  9998
2 29875  98.3901 117.5335 0082272 179.0444 302.8690 14.24898431995036
FENGYUN 1C DEB          
1 29876U 99025FW  26064.67689506  .00000340  00000+0  17395-3 0  9996
2 29876  98.3188 115.4249 0062253 134.0313 348.1793 14.20360338990946
